{
    "links": {
        "self": "http://www.neowsapp.com/rest/v1/neo/3843704?api_key=iIulBulltgU6a56xZRHN4H3l9WmuAYTsLGpBGhQ2"
    },
    "id": "3843704",
    "neo_reference_id": "3843704",
    "name": "(2019 QJ6)",
    "designation": "2019 QJ6",
    "nasa_jpl_url": "http://ssd.jpl.nasa.gov/sbdb.cgi?sstr=3843704",
    "absolute_magnitude_h": 24.9,
    "estimated_diameter": {
        "kilometers": {
            "estimated_diameter_min": 0.0278326768,
            "estimated_diameter_max": 0.0622357573
        },
        "meters": {
            "estimated_diameter_min": 27.8326768072,
            "estimated_diameter_max": 62.2357573367
        },
        "miles": {
            "estimated_diameter_min": 0.0172944182,
            "estimated_diameter_max": 0.0386714948
        },
        "feet": {
            "estimated_diameter_min": 91.3145593761,
            "estimated_diameter_max": 204.1855621004
        }
    },
    "is_potentially_hazardous_asteroid": false,
    "close_approach_data": [
        {
            "close_approach_date": "2019-08-09",
            "close_approach_date_full": "2019-Aug-09 12:47",
            "epoch_date_close_approach": 1565354820000,
            "relative_velocity": {
                "kilometers_per_second": "6.4575465788",
                "kilometers_per_hour": "23247.1676835577",
                "miles_per_hour": "14444.8859420417"
            },
            "miss_distance": {
                "astronomical": "0.0407882995",
                "lunar": "15.8666485055",
                "kilometers": "6101842.726122065",
                "miles": "3791509.255391897"
            },
            "orbiting_body": "Earth"
        }
    ],
    "orbital_data": {
        "orbit_id": "3",
        "orbit_determination_date": "2019-09-10 05:44:30",
        "first_observation_date": "2019-08-27",
        "last_observation_date": "2019-09-06",
        "data_arc_in_days": 10,
        "observations_used": 21,
        "orbit_uncertainty": "8",
        "minimum_orbit_intersection": ".0198184",
        "jupiter_tisserand_invariant": "4.338",
        "epoch_osculation": "2458725.5",
        "eccentricity": ".3484273549555975",
        "semi_major_axis": "1.568013403196812",
        "inclination": "7.951111759101252",
        "ascending_node_longitude": "329.3973021648754",
        "orbital_period": "717.1715995017873",
        "perihelion_distance": "1.021674640586022",
        "perihelion_argument": "342.1029974024905",
        "aphelion_distance": "2.114352165807602",
        "perihelion_time": "2458699.287727243791",
        "mean_anomaly": "13.15782470860619",
        "mean_motion": ".5019719133469435",
        "equinox": "J2000",
        "orbit_class": {
            "orbit_class_type": "AMO",
            "orbit_class_description": "Near-Earth asteroid orbits similar to that of 1221 Amor",
            "orbit_class_range": "1.017 AU < q (perihelion) < 1.3 AU"
        }
    },
    "is_sentry_object": false
}